GLOBALSTAR M068         
1 32266U 07048D   24145.92462139 -.00000043  00000+0  33739-3 0  9995
2 32266  51.9905  45.7757 0001398  31.6104  50.2960 12.62789957768505
GLOBALSTAR M079         
1 37188U 10054A   24146.56068196 -.00000057  00000+0  26074-3 0  9999
2 37188  52.0036 239.7833 0000718 146.2817 227.1611 12.62270432628189
GLOBALSTAR M074         
1 37189U 10054B   24146.50805525 -.00000055  00000+0  26962-3 0  9993
2 37189  52.0012 239.3271 0000462 134.5637 238.8300 12.62269072628173
GLOBALSTAR M076         
1 37190U 10054C   24146.55446089 -.00000043  00000+0  33737-3 0  9991
2 37190  52.0024 239.3188 0000650 178.0205 288.2245 12.62261540628188
GLOBALSTAR M077         
1 37191U 10054D   24145.92243178 -.00000064  00000+0  21915-3 0  9994
2 37191  52.0057 197.9899 0000166 165.0609   6.2593 12.62273631628110
GLOBALSTAR M075         
1 37192U 10054E   24146.56196914 -.00000074  00000+0  16645-3 0  9996
2 37192  51.9953 281.7700 0000832 120.6303 318.8999 12.62274656627428
GLOBALSTAR M073         
1 37193U 10054F   24145.86983837 -.00000061  00000+0  23932-3 0  9990
2 37193  52.0043 197.4020 0000303 172.0567 359.6154 12.62265770628799
GLOBALSTAR M083         
1 37739U 11033A   24145.92518954 -.00000108  00000+0 -23998-4 0  9991
2 37739  51.9835 146.4925 0000360  73.6472 291.0918 12.62270257597826
GLOBALSTAR M088         
1 37740U 11033B   24146.48949832 -.00000089  00000+0  84436-4 0  9999
2 37740  51.9753  50.5900 0000844  76.4662  94.2325 12.62268385593723
GLOBALSTAR M091         
1 37741U 11033C   24145.91420868 -.00000081  00000+0  12957-3 0  9990
2 37741  52.0021  15.2060 0001133  87.2124 286.9239 12.62262994594156
GLOBALSTAR M085         
1 37742U 11033D   24145.92991580 -.00000089  00000+0  81562-4 0  9993
2 37742  51.9882 326.5397 0001114 101.4846  44.9884 12.62271313594669
GLOBALSTAR M081         
1 37743U 11033E   24146.48247035 -.00000084  00000+0  11147-3 0  9991
2 37743  51.9972 327.4055 0001071 113.8490 264.0767 12.62265276595268
GLOBALSTAR M089         
1 37744U 11033F   24145.58595703 -.00000088  00000+0  86999-4 0  9992
2 37744  51.9938 284.4380 0000552 145.2018 295.5493 12.62264044595865
GLOBALSTAR M084         
1 38040U 11080A   24145.77717049 -.00000094  00000+0  52996-4 0  9991
2 38040  51.9984 150.9340 0000218 311.2836 220.5301 12.62262909573614
GLOBALSTAR M080         
1 38041U 11080B   24146.20573969 -.00000097  00000+0  35954-4 0  9990
2 38041  52.0036 151.1003 0000352 257.2809 182.5537 12.62273191573930
GLOBALSTAR M082         
1 38042U 11080C   24145.88871486 -.00000119  00000+0 -86026-4 0  9991
2 38042  52.0067 107.4700 0000964  52.9581 324.9506 12.62269738574468
GLOBALSTAR M092         
1 38043U 11080D   24145.89558222 -.00000066  00000+0  21133-3 0  9990
2 38043  52.0068 197.8047 0000098 129.8533  40.9087 12.62262913572911
GLOBALSTAR M090         
1 38044U 11080E   24146.58215971 -.00000115  00000+0 -62421-4 0  9991
2 38044  51.9879  99.6661 0000714  59.4242 111.6745 12.62263414574704
GLOBALSTAR M086         
1 38045U 11080F   24145.34010642 -.00000111  00000+0 -37553-4 0  9997
2 38045  51.9891 103.9686 0000721 153.4790  11.3212 12.62271232574450
GLOBALSTAR M097         
1 39072U 13005A   24145.88505876 -.00000080  00000+0  13224-3 0  9996
2 39072  52.0071  16.4663 0000991  92.0880 268.0101 12.62263196521778
GLOBALSTAR M093         
1 39073U 13005B   24145.93759235 -.00000078  00000+0  14343-3 0  9993
2 39073  51.9833  10.2294 0001112  95.0297 265.0697 12.62259508521731
GLOBALSTAR M094         
1 39074U 13005C   24145.77920664 -.00000089  00000+0  84224-4 0  9990
2 39074  51.9964 284.7051 0000975 121.7686 238.3276 12.62266185523323
GLOBALSTAR M096         
1 39075U 13005D   24145.95070144 -.00000089  00000+0  82962-4 0  9997
2 39075  52.0090 332.3944 0001193 104.2219 255.8780 12.62266043522616
GLOBALSTAR M078         
1 39076U 13005E   24145.92474449 -.00000004  00000+0  55417-3 0  9992
2 39076  51.9889  57.5122 0001550  51.3095 308.7910 12.62276250520887
GLOBALSTAR M095         
1 39077U 13005F   24145.95040940 -.00000087  00000+0  93009-4 0  9992
2 39077  51.9817  54.8183 0001326  71.6251 288.4760 12.62266449520747
GLOBALSTAR M087         
1 52888U 22064A   24145.79528074 -.00000076  00000+0  10014-3 0  9995
2 52888  51.9761 289.9479 0008671 306.6022  53.4080 13.37574816 94391
